NORAD_CAT_ID,OBJECT_NAME,OBJECT_TYPE,EPOCH,MEAN_MOTION,ECCENTRICITY,INCLINATION,RA_OF_ASC_NODE,ARG_OF_PERICENTER,MEAN_ANOMALY,BSTAR,MEAN_MOTION_DOT,MEAN_MOTION_DDOT,TLE_LINE0,TLE_LINE1,TLE_LINE2,SEMIMAJOR_AXIS,PERIOD,APOGEE,PERIGEE,DECAYED
53566.0,STARLINK-4576,PAYLOAD,2023-09-20 22:42:01,15.08821276,0.0001376,53.2154,137.6984,87.9814,272.1336,-0.00027302,-4.628e-05,0.0,0 STARLINK-4576,1 53566U 22101AR  23263.94585463 -.00004628  00000-0 -27302-3 0  9990,2 53566  53.2154 137.6984 0001376  87.9814 272.1336 15.08821276 60469,6917.938,95.439,540.755,538.851,0.0
53566.0,STARLINK-4576,PAYLOAD,2023-09-21 20:57:25,15.08824349,0.0002936,53.2162,133.5372,136.2513,223.8712,1.1727e-05,-1.02e-06,0.0,0 STARLINK-4576,1 53566U 22101AR  23264.87321748 -.00000102  00000-0  11727-4 0  9994,2 53566  53.2162 133.5372 0002936 136.2513 223.8712 15.08824349 61298,6917.928,95.439,541.824,537.762,0.0
53566.0,STARLINK-4576,PAYLOAD,2023-09-22 00:08:12,15.08839444,0.0001796,53.2159,132.9437,120.1316,239.9855,0.00028777,4.295e-05,0.0,0 STARLINK-4576,1 53566U 22101AR  23265.00569946  .00004295  00000-0  28777-3 0  9992,2 53566  53.2159 132.9437 0001796 120.1316 239.9855 15.08839444 60629,6917.882,95.438,540.99,538.505,0.0
53566.0,STARLINK-4576,PAYLOAD,2023-09-22 01:43:35,15.08838865,0.0001659,53.216,132.6453,103.9985,256.1191,0.00029643,4.433e-05,0.0,0 STARLINK-4576,1 53566U 22101AR  23265.07193725  .00004433  00000-0  29643-3 0  9994,2 53566  53.2160 132.6453 0001659 103.9985 256.1191 15.08838865 61323,6917.884,95.438,540.897,538.601,0.0
53566.0,STARLINK-4576,PAYLOAD,2023-09-22 20:48:13,15.08851458,0.0001559,53.2161,129.0788,107.6797,252.4365,0.00054925,8.467e-05,0.0,0 STARLINK-4576,1 53566U 22101AR  23265.86681827  .00008467  00000-0  54925-3 0  9998,2 53566  53.2161 129.0788 0001559 107.6797 252.4365 15.08851458 61444,6917.845,95.437,540.789,538.632,0.0
53566.0,STARLINK-4576,PAYLOAD,2023-09-22 23:58:59,15.08859055,0.0001606,53.2162,128.4828,98.3917,261.7258,0.00061224,9.474e-05,0.0,0 STARLINK-4576,1 53566U 22101AR  23265.99929637  .00009474  00000-0  61224-3 0  9995,2 53566  53.2162 128.4828 0001606  98.3917 261.7258 15.08859055 60776,6917.822,95.436,540.798,538.576,0.0
53566.0,STARLINK-4576,PAYLOAD,2023-09-23 19:03:36,15.08852728,0.0001467,53.2166,124.9115,100.9091,259.2066,0.00018887,2.72e-05,0.0,0 STARLINK-4576,1 53566U 22101AR  23266.79417267  .00002720  00000-0  18887-3 0  9999,2 53566  53.2166 124.9115 0001467 100.9091 259.2066 15.08852728 60890,6917.841,95.437,540.721,538.692,0.0
53566.0,STARLINK-4576,PAYLOAD,2023-09-24 01:25:08,15.08853792,0.0001393,53.2162,123.7228,106.1267,253.9879,0.00020573,2.989e-05,0.0,0 STARLINK-4576,1 53566U 22101AR  23267.05913020  .00002989  00000-0  20573-3 0  9999,2 53566  53.2162 123.7228 0001393 106.1267 253.9879 15.08853792 61626,6917.838,95.437,540.667,538.74,0.0
53566.0,STARLINK-4576,PAYLOAD,2023-09-24 18:54:23,15.08838394,0.0001607,53.2148,120.4552,97.0822,263.0352,-1.7531e-05,-5.67e-06,0.0,0 STARLINK-4576,1 53566U 22101AR  23267.78777469 -.00000567  00000-0 -17531-4 0  9997,2 53566  53.2148 120.4552 0001607  97.0822 263.0352 15.08838394 61042,6917.885,95.438,540.862,538.639,0.0
53566.0,STARLINK-4576,PAYLOAD,2023-09-24 22:05:10,15.08842501,0.000146,53.2156,119.8621,89.1039,271.012,2.9077e-05,1.75e-06,0.0,0 STARLINK-4576,1 53566U 22101AR  23267.92025464  .00000175  00000-0  29077-4 0  9995,2 53566  53.2156 119.8621 0001460  89.1039 271.0120 15.08842501 61754,6917.873,95.437,540.748,538.728,0.0
53566.0,STARLINK-4576,PAYLOAD,2023-09-25 07:37:28,15.088459,0.0001582,53.215,118.0759,93.8514,266.2659,0.00020519,2.98e-05,0.0,0 STARLINK-4576,1 53566U 22101AR  23268.31769463  .00002980  00000-0  20519-3 0  9990,2 53566  53.2150 118.0759 0001582  93.8514 266.2659 15.08845900 61812,6917.862,95.437,540.822,538.633,0.0
53566.0,STARLINK-4576,PAYLOAD,2023-09-25 20:20:33,15.08850148,0.0001414,53.2156,115.6968,89.0111,271.1044,0.00030735,4.608e-05,0.0,0 STARLINK-4576,1 53566U 22101AR  23268.84761344  .00004608  00000-0  30735-3 0  9998,2 53566  53.2156 115.6968 0001414  89.0111 271.1044 15.08850148 61898,6917.849,95.437,540.693,538.736,0.0
53566.0,STARLINK-4576,PAYLOAD,2023-09-26 13:49:48,15.08836792,0.0001781,53.2152,112.4294,70.6966,289.4218,6.8167e-05,7.97e-06,0.0,0 STARLINK-4576,1 53566U 22101AR  23269.57626074  .00000797  00000-0  68167-4 0  9995,2 53566  53.2152 112.4294 0001781  70.6966 289.4218 15.08836792 62000,6917.89,95.438,540.987,538.523,0.0
53566.0,STARLINK-4576,PAYLOAD,2023-09-26 17:00:35,15.08833741,0.0001547,53.2152,111.8317,77.3821,282.7344,-4.1046e-05,-9.41e-06,0.0,0 STARLINK-4576,1 53566U 22101AR  23269.70874156 -.00000941  00000-0 -41046-4 0  9996,2 53566  53.2152 111.8317 0001547  77.3821 282.7344 15.08833741 61335,6917.9,95.438,540.835,538.694,0.0
53566.0,STARLINK-4576,PAYLOAD,2023-09-26 20:11:21,15.08835773,0.0001499,53.2153,111.2362,81.8852,278.231,-1.4877e-06,-3.12e-06,0.0,0 STARLINK-4576,1 53566U 22101AR  23269.84122163 -.00000312  00000-0 -14877-5 0  9990,2 53566  53.2153 111.2362 0001499  81.8852 278.2310 15.08835773 62049,6917.893,95.438,540.795,538.721,0.0
53566.0,STARLINK-4576,PAYLOAD,2023-09-26 23:22:07,15.08837751,0.0001477,53.2155,110.6404,85.1152,275.0009,1.547e-05,-4.2e-07,0.0,0 STARLINK-4576,1 53566U 22101AR  23269.97370054 -.00000042  00000-0  15470-4 0  9996,2 53566  53.2155 110.6404 0001477  85.1152 275.0009 15.08837751 62067,6917.887,95.438,540.774,538.73,0.0
53566.0,STARLINK-4576,PAYLOAD,2023-09-27 18:26:45,15.08838553,0.0001561,53.2163,107.0709,90.8518,269.2653,-4.5373e-06,-3.6e-06,0.0,0 STARLINK-4576,1 53566U 22101AR  23270.76858268 -.00000360  00000-0 -45373-5 0  9993,2 53566  53.2163 107.0709 0001561  90.8518 269.2653 15.08838553 61494,6917.885,95.438,540.83,538.67,0.0
53566.0,STARLINK-4576,PAYLOAD,2023-09-28 13:31:23,15.08836708,0.0001549,53.2167,103.5015,94.2973,265.8196,0.0001089,1.445e-05,0.0,0 STARLINK-4576,1 53566U 22101AR  23271.56346286  .00001445  00000-0  10890-3 0  9991,2 53566  53.2167 103.5015 0001549  94.2973 265.8196 15.08836708 62303,6917.89,95.438,540.827,538.684,0.0
53566.0,STARLINK-4576,PAYLOAD,2023-09-28 19:52:55,15.08840172,0.000154,53.2169,102.3122,92.1394,267.9775,0.00013125,1.801e-05,0.0,0 STARLINK-4576,1 53566U 22101AR  23271.82842092  .00001801  00000-0  13125-3 0  9996,2 53566  53.2169 102.3122 0001540  92.1394 267.9775 15.08840172 62346,6917.88,95.438,540.81,538.68,0.0
53566.0,STARLINK-4576,PAYLOAD,2023-09-29 22:54:28,15.08848802,0.0001538,53.2178,97.2583,90.1322,269.9846,0.00013878,1.922e-05,0.0,0 STARLINK-4576,1 53566U 22101AR  23272.95449593  .00001922  00000-0  13878-3 0  9999,2 53566  53.2178  97.2583 0001538  90.1322 269.9846 15.08848802 61826,6917.853,95.437,540.782,538.655,0.0
53566.0,STARLINK-4576,PAYLOAD,2023-09-30 17:59:06,15.08839527,0.0001386,53.2174,93.6876,101.8013,258.3135,6.2456e-06,-1.89e-06,0.0,0 STARLINK-4576,1 53566U 22101AR  23273.74938463 -.00000189  00000-0  62456-5 0  9999,2 53566  53.2174  93.6876 0001386 101.8013 258.3135 15.08839527 61945,6917.882,95.438,540.706,538.788,0.0
53566.0,STARLINK-4576,PAYLOAD,2023-10-01 11:28:20,15.08848584,0.0001426,53.2167,90.4193,105.0438,255.0712,1.4776e-05,-5.3e-07,0.0,0 STARLINK-4576,1 53566U 22101AR  23274.47802004 -.00000053  00000-0  14776-4 0  9992,2 53566  53.2167  90.4193 0001426 105.0438 255.0712 15.08848584 62743,6917.854,95.437,540.706,538.733,0.0
53566.0,STARLINK-4576,PAYLOAD,2023-10-01 19:25:16,15.08843522,0.0001375,53.2174,88.9308,98.943,261.1718,-8.0697e-06,-4.16e-06,0.0,0 STARLINK-4576,1 53566U 22101AR  23274.80922348 -.00000416  00000-0 -80697-5 0  9993,2 53566  53.2174  88.9308 0001375  98.9430 261.1718 15.08843522 62792,6917.87,95.437,540.686,538.783,0.0
53566.0,STARLINK-4576,PAYLOAD,2023-10-02 11:19:08,15.08834133,0.0001307,53.2173,85.9576,84.9413,275.1729,9.2621e-05,1.186e-05,0.0,0 STARLINK-4576,1 53566U 22101AR  23275.47162927  .00001186  00000-0  92621-4 0  9998,2 53566  53.2173  85.9576 0001307  84.9413 275.1729 15.08834133 62207,6917.898,95.438,540.667,538.859,0.0
53566.0,STARLINK-4576,PAYLOAD,2023-10-02 17:40:40,15.08842444,0.0001305,53.217,84.7689,84.3738,275.7403,0.00010305,1.353e-05,0.0,0 STARLINK-4576,1 53566U 22101AR  23275.73658382  .00001353  00000-0  10305-3 0  9996,2 53566  53.2170  84.7689 0001305  84.3738 275.7403 15.08842444 62241,6917.873,95.437,540.641,538.835,0.0
53566.0,STARLINK-4576,PAYLOAD,2023-10-03 14:20:41,15.08839393,0.0001028,53.2166,80.9032,97.8632,262.2477,0.0001446,2.014e-05,0.0,0 STARLINK-4576,1 53566U 22101AR  23276.59770314  .00002014  00000-0  14460-3 0  9992,2 53566  53.2166  80.9032 0001028  97.8632 262.2477 15.08839393 63062,6917.882,95.438,540.458,539.036,0.0
53566.0,STARLINK-4576,PAYLOAD,2023-10-03 17:31:27,15.08848265,0.0001553,53.2174,80.3093,105.767,254.3494,0.00010398,1.368e-05,0.0,0 STARLINK-4576,1 53566U 22101AR  23276.73017845  .00001368  00000-0  10398-3 0  9998,2 53566  53.2174  80.3093 0001553 105.7670 254.3494 15.08848265 63087,6917.855,95.437,540.794,538.646,0.0
53566.0,STARLINK-4576,PAYLOAD,2023-10-04 11:00:42,15.08844699,0.0001445,53.2169,77.0372,97.3759,262.7398,9.4343e-05,1.214e-05,0.0,0 STARLINK-4576,1 53566U 22101AR  23277.45882207  .00001214  00000-0  94343-4 0  9993,2 53566  53.2169  77.0372 0001445  97.3759 262.7398 15.08844699 62507,6917.866,95.437,540.731,538.731,0.0
53566.0,STARLINK-4576,PAYLOAD,2023-10-04 14:11:28,15.08845528,0.0001438,53.2176,76.4428,98.7151,261.4004,8.4135e-05,1.052e-05,0.0,0 STARLINK-4576,1 53566U 22101AR  23277.59130081  .00001052  00000-0  84135-4 0  9992,2 53566  53.2176  76.4428 0001438  98.7151 261.4004 15.08845528 63214,6917.863,95.437,540.723,538.734,0.0
53566.0,STARLINK-4576,PAYLOAD,2023-10-04 17:22:14,15.08847889,0.0001352,53.2181,75.8492,86.8493,273.2654,0.00010372,1.364e-05,0.0,0 STARLINK-4576,1 53566U 22101AR  23277.72377900  .00001364  00000-0  10372-3 0  9997,2 53566  53.2181  75.8492 0001352  86.8493 273.2654 15.08847889 63232,6917.856,95.437,540.657,538.786,0.0
